[
    {
        "CCSDS_OMM_VERS": "3.0",
        "COMMENT": "GENERATED VIA SPACE-TRACK.ORG API",
        "CREATION_DATE": "2025-04-13T03:46:00",
        "ORIGINATOR": "18 SPCS",
        "OBJECT_NAME": "COSMOS 2534 (GLONASS)",
        "OBJECT_ID": "2019-030A",
        "CENTER_NAME": "EARTH",
        "REF_FRAME": "TEME",
        "TIME_SYSTEM": "UTC",
        "MEAN_ELEMENT_THEORY": "SGP4",
        "EPOCH": "2025-04-12T22:54:37.497024",
        "MEAN_MOTION": "2.13102459",
        "ECCENTRICITY": "0.00110230",
        "INCLINATION": "64.3659",
        "RA_OF_ASC_NODE": "207.1079",
        "ARG_OF_PERICENTER": "280.6616",
        "MEAN_ANOMALY": "278.0123",
        "EPHEMERIS_TYPE": "0",
        "CLASSIFICATION_TYPE": "U",
        "NORAD_CAT_ID": "44299",
        "ELEMENT_SET_NO": "999",
        "REV_AT_EPOCH": "4575",
        "BSTAR": "0.00000000000000",
        "MEAN_MOTION_DOT": "0.00000006",
        "MEAN_MOTION_DDOT": "0.0000000000000",
        "SEMIMAJOR_AXIS": "25507.988",
        "PERIOD": "675.731",
        "APOAPSIS": "19157.970",
        "PERIAPSIS": "19101.735",
        "OBJECT_TYPE": "PAYLOAD",
        "RCS_SIZE": "LARGE",
        "COUNTRY_CODE": "CIS",
        "LAUNCH_DATE": "2019-05-27",
        "SITE": "PKMTR",
        "DECAY_DATE": null,
        "FILE": "4700252",
        "GP_ID": "285485104",
        "TLE_LINE0": "0 COSMOS 2534 (GLONASS)",
        "TLE_LINE1": "1 44299U 19030A   25102.95460066  .00000006  00000-0  00000-0 0  9993",
        "TLE_LINE2": "2 44299  64.3659 207.1079 0011023 280.6616 278.0123  2.13102459 45756"
    }
]